[{"OBJECT_NAME":"METEOR-M2 3","OBJECT_ID":"2023-091A","EPOCH":"2026-03-09T22:59:41.369280","MEAN_MOTION":14.24037691,"ECCENTRICITY":0.000511,"INCLINATION":98.6213,"RA_OF_ASC_NODE":125.9119,"ARG_OF_PERICENTER":98.6128,"MEAN_ANOMALY":261.563,"EPHEMERIS_TYPE":0,"CLASSIFICATION_TYPE":"U","NORAD_CAT_ID":57166,"ELEMENT_SET_NO":999,"REV_AT_EPOCH":14039,"BSTAR":2.3891208e-5,"MEAN_MOTION_DOT":1.2e-7,"MEAN_MOTION_DDOT":0},{"OBJECT_NAME":"FENGYUN 1C DEB","OBJECT_ID":"1999-025BCA","EPOCH":"2026-03-08T13:38:12.200064","MEAN_MOTION":14.51104279,"ECCENTRICITY":0.01275508,"INCLINATION":98.2528,"RA_OF_ASC_NODE":107.3446,"ARG_OF_PERICENTER":104.3794,"MEAN_ANOMALY":257.1598,"EPHEMERIS_TYPE":0,"CLASSIFICATION_TYPE":"U","NORAD_CAT_ID":30984,"ELEMENT_SET_NO":999,"REV_AT_EPOCH":96408,"BSTAR":0.001045181,"MEAN_MOTION_DOT":4.558e-5,"MEAN_MOTION_DDOT":0}]
